NORAD_CAT_ID,OBJECT_NAME,OBJECT_TYPE,EPOCH,MEAN_MOTION,ECCENTRICITY,INCLINATION,RA_OF_ASC_NODE,ARG_OF_PERICENTER,MEAN_ANOMALY,BSTAR,MEAN_MOTION_DOT,MEAN_MOTION_DDOT,TLE_LINE0,TLE_LINE1,TLE_LINE2,SEMIMAJOR_AXIS,PERIOD,APOGEE,PERIGEE,DECAYED
52663.0,STARLINK-4037,PAYLOAD,2023-09-28 19:44:59,15.08837212,0.0001627,53.2177,202.3543,102.5118,257.6056,0.00017697,2.529e-05,0.0,0 STARLINK-4037,1 52663U 22053H   23271.82290661  .00002529  00000-0  17697-3 0  9994,2 52663  53.2177 202.3543 0001627 102.5118 257.6056 15.08837212 76250,6917.889,95.438,540.879,538.628,0.0
52663.0,STARLINK-4037,PAYLOAD,2023-09-29 05:17:17,15.08849789,0.0001725,53.2172,200.5711,98.348,261.7708,0.00027862,4.15e-05,0.0,0 STARLINK-4037,1 52663U 22053H   23272.22033714  .00004150  00000-0  27862-3 0  9990,2 52663  53.2172 200.5711 0001725  98.3480 261.7708 15.08849789 76314,6917.85,95.437,540.909,538.522,0.0
52663.0,STARLINK-4037,PAYLOAD,2023-09-30 01:57:17,15.08853708,0.0001563,53.2179,196.6994,107.9655,252.1507,0.00018855,2.715e-05,0.0,0 STARLINK-4037,1 52663U 22053H   23273.08145475  .00002715  00000-0  18855-3 0  9990,2 52663  53.2179 196.6994 0001563 107.9655 252.1507 15.08853708 76441,6917.838,95.437,540.785,538.622,0.0
52663.0,STARLINK-4037,PAYLOAD,2023-09-30 11:29:36,15.08847665,0.0001757,53.217,194.9195,70.482,289.6362,0.00011118,1.482e-05,0.0,0 STARLINK-4037,1 52663U 22053H   23273.47889934  .00001482  00000-0  11118-3 0  9993,2 52663  53.2170 194.9195 0001757  70.4820 289.6362 15.08847665 76505,6917.857,95.437,540.937,538.506,0.0
52663.0,STARLINK-4037,PAYLOAD,2023-10-01 11:20:24,15.0883591,0.000148,53.217,190.4612,85.2083,274.9078,2.735e-07,-2.84e-06,0.0,0 STARLINK-4037,1 52663U 22053H   23274.47251110 -.00000284  00000-0  27350-6 0  9991,2 52663  53.2170 190.4612 0001480  85.2083 274.9078 15.08835910 76655,6917.893,95.438,540.782,538.734,0.0
52663.0,STARLINK-4037,PAYLOAD,2023-10-02 01:38:51,15.08862746,0.0001265,53.217,187.7852,92.5461,267.5676,8.307e-05,1.035e-05,0.0,0 STARLINK-4037,1 52663U 22053H   23275.06865043  .00001035  00000-0  83070-4 0  9996,2 52663  53.2170 187.7852 0001265  92.5461 267.5676 15.08862746 76741,6917.811,95.436,540.551,538.801,0.0
52663.0,STARLINK-4037,PAYLOAD,2023-10-02 11:11:11,15.08839901,0.0001154,53.2166,186.0005,109.342,250.7697,-0.00012771,-2.32e-05,0.0,0 STARLINK-4037,1 52663U 22053H   23275.46610613 -.00002320  00000-0 -12771-3 0  9990,2 52663  53.2166 186.0005 0001154 109.3420 250.7697 15.08839901 76808,6917.881,95.438,540.544,538.947,0.0
52663.0,STARLINK-4037,PAYLOAD,2023-10-03 11:01:59,15.08832088,0.0001894,53.2157,181.5402,86.5619,273.559,-0.00012427,-2.265e-05,0.0,0 STARLINK-4037,1 52663U 22053H   23276.45971273 -.00002265  00000-0 -12427-3 0  9998,2 52663  53.2157 181.5402 0001894  86.5619 273.5590 15.08832088 76956,6917.905,95.438,541.08,538.459,0.0
52663.0,STARLINK-4037,PAYLOAD,2023-10-03 22:09:41,15.08835913,0.0001424,53.2176,179.4583,86.4051,273.7104,2.1438e-05,5.3e-07,0.0,0 STARLINK-4037,1 52663U 22053H   23276.92339522  .00000053  00000-0  21438-4 0  9999,2 52663  53.2176 179.4583 0001424  86.4051 273.7104 15.08835913 77023,6917.893,95.438,540.743,538.773,0.0
52663.0,STARLINK-4037,PAYLOAD,2023-10-04 02:55:50,15.08847176,0.000169,53.2187,178.5629,61.2263,298.8899,7.5972e-05,9.21e-06,0.0,0 STARLINK-4037,1 52663U 22053H   23277.12210796  .00000921  00000-0  75972-4 0  9999,2 52663  53.2187 178.5629 0001690  61.2263 298.8899 15.08847176 77053,6917.858,95.437,540.893,538.554,0.0
52663.0,STARLINK-4037,PAYLOAD,2023-10-04 10:52:45,15.08842387,0.0001472,53.2162,177.0795,87.0326,273.0835,-1.4008e-05,-5.11e-06,0.0,0 STARLINK-4037,1 52663U 22053H   23277.45330904 -.00000511  00000-0 -14008-4 0  9999,2 52663  53.2162 177.0795 0001472  87.0326 273.0835 15.08842387 77108,6917.873,95.437,540.756,538.72,0.0
52663.0,STARLINK-4037,PAYLOAD,2023-10-05 10:43:32,15.08848789,0.0001547,53.2169,172.619,91.7997,268.3173,0.00023391,3.438e-05,0.0,0 STARLINK-4037,1 52663U 22053H   23278.44690533  .00003438  00000-0  23391-3 0  9999,2 52663  53.2169 172.6190 0001547  91.7997 268.3173 15.08848789 77254,6917.854,95.437,540.789,538.648,0.0
52663.0,STARLINK-4037,PAYLOAD,2023-10-05 21:51:15,15.08835844,0.0002001,53.2173,170.5385,98.9507,261.1711,5.2941e-05,5.54e-06,0.0,0 STARLINK-4037,1 52663U 22053H   23278.91059433  .00000554  00000-0  52941-4 0  9999,2 52663  53.2173 170.5385 0002001  98.9507 261.1711 15.08835844 77329,6917.893,95.438,541.142,538.374,0.0
52663.0,STARLINK-4037,PAYLOAD,2023-10-06 02:37:24,15.0884145,0.0001979,53.2174,169.6432,106.7328,253.3881,-4.3137e-06,-3.57e-06,0.0,0 STARLINK-4037,1 52663U 22053H   23279.10931025 -.00000357  00000-0 -43137-5 0  9998,2 52663  53.2174 169.6432 0001979 106.7328 253.3881 15.08841450 77358,6917.876,95.437,541.11,538.372,0.0
52663.0,STARLINK-4037,PAYLOAD,2023-10-06 21:42:02,15.08834923,0.0001862,53.2167,166.0757,98.8839,261.2364,-5.5916e-05,-1.178e-05,0.0,0 STARLINK-4037,1 52663U 22053H   23279.90419716 -.00001178  00000-0 -55916-4 0  9993,2 52663  53.2167 166.0757 0001862  98.8839 261.2364 15.08834923 77474,6917.896,95.438,541.049,538.473,0.0
52663.0,STARLINK-4037,PAYLOAD,2023-10-07 02:28:11,15.08843017,0.0001642,53.2166,165.1841,91.637,268.481,-2.7943e-05,-7.33e-06,0.0,0 STARLINK-4037,1 52663U 22053H   23280.10291303 -.00000733  00000-0 -27943-4 0  9992,2 52663  53.2166 165.1841 0001642  91.6370 268.4810 15.08843017 77507,6917.871,95.437,540.872,538.6,0.0
52663.0,STARLINK-4037,PAYLOAD,2023-10-07 16:46:40,15.08835188,0.0001854,53.2169,162.5073,96.8194,263.3009,0.0001635,2.315e-05,0.0,0 STARLINK-4037,1 52663U 22053H   23280.69908027  .00002315  00000-0  16350-3 0  9999,2 52663  53.2169 162.5073 0001854  96.8194 263.3009 15.08835188 77597,6917.895,95.438,541.043,538.478,0.0
52663.0,STARLINK-4037,PAYLOAD,2023-10-07 21:32:49,15.08841938,0.0001849,53.2163,161.6156,94.7604,265.36,0.0002501,3.695e-05,0.0,0 STARLINK-4037,1 52663U 22053H   23280.89779724  .00003695  00000-0  25010-3 0  9996,2 52663  53.2163 161.6156 0001849  94.7604 265.3600 15.08841938 77623,6917.874,95.437,541.019,538.46,0.0
52663.0,STARLINK-4037,PAYLOAD,2023-10-07 23:08:12,15.08846504,0.0001763,53.2163,161.3181,96.5028,263.6165,0.000215,3.136e-05,0.0,0 STARLINK-4037,1 52663U 22053H   23280.96403458  .00003136  00000-0  21500-3 0  9992,2 52663  53.2163 161.3181 0001763  96.5028 263.6165 15.08846504 77635,6917.861,95.437,540.945,538.506,0.0
52663.0,STARLINK-4037,PAYLOAD,2023-10-08 08:40:31,15.08842989,0.0001849,53.2164,159.5354,86.101,274.0193,0.00012529,1.707e-05,0.0,0 STARLINK-4037,1 52663U 22053H   23281.36147543  .00001707  00000-0  12529-3 0  9990,2 52663  53.2164 159.5354 0001849  86.1010 274.0193 15.08842989 77694,6917.871,95.437,541.015,538.457,0.0
52663.0,STARLINK-4037,PAYLOAD,2023-10-08 15:02:04,15.08840044,0.0001806,53.2164,158.3474,87.6892,272.4306,0.00019759,2.858e-05,0.0,0 STARLINK-4037,1 52663U 22053H   23281.62643835  .00002858  00000-0  19759-3 0  9994,2 52663  53.2164 158.3474 0001806  87.6892 272.4306 15.08840044 77734,6917.88,95.438,540.995,538.496,0.0
52663.0,STARLINK-4037,PAYLOAD,2023-10-08 21:23:37,15.08829496,0.0001319,53.2161,157.1555,80.8801,279.234,-8.7007e-05,-1.672e-05,0.0,0 STARLINK-4037,1 52663U 22053H   23281.89140399 -.00001672  00000-0 -87007-4 0  9997,2 52663  53.2161 157.1555 0001319  80.8801 279.2340 15.08829496 77777,6917.912,95.438,540.69,538.865,0.0
52663.0,STARLINK-4037,PAYLOAD,2023-10-09 02:09:46,15.08832228,0.0001283,53.2162,156.2642,92.2851,267.8288,-5.6804e-05,-1.192e-05,0.0,0 STARLINK-4037,1 52663U 22053H   23282.09012280 -.00001192  00000-0 -56804-4 0  9995,2 52663  53.2162 156.2642 0001283  92.2851 267.8288 15.08832228 77802,6917.904,95.438,540.657,538.882,0.0
52663.0,STARLINK-4037,PAYLOAD,2023-10-09 08:31:19,15.08833941,0.0001239,53.2161,155.0747,87.5425,272.5709,-1.1456e-05,-4.7e-06,0.0,0 STARLINK-4037,1 52663U 22053H   23282.35508327 -.00000470  00000-0 -11456-4 0  9998,2 52663  53.2161 155.0747 0001239  87.5425 272.5709 15.08833941 77847,6917.899,95.438,540.621,538.907,0.0
52663.0,STARLINK-4037,PAYLOAD,2023-10-09 21:14:21,15.08896758,0.0001313,53.2164,152.6951,88.0076,272.1066,0.00086192,0.00013477,0.0,0 STARLINK-4037,1 52663U 22053H   23282.88497399  .00013477  00000-0  86192-3 0  9999,2 52663  53.2164 152.6951 0001313  88.0076 272.1066 15.08896758 77927,6917.707,95.434,540.48,538.664,0.0
52663.0,STARLINK-4037,PAYLOAD,2023-10-10 00:25:09,15.0885681,0.0001284,53.2164,152.101,92.81,267.3039,0.00027326,4.066e-05,0.0,0 STARLINK-4037,1 52663U 22053H   23283.01747231  .00004066  00000-0  27326-3 0  9996,2 52663  53.2164 152.1010 0001284  92.8100 267.3039 15.08856810 77949,6917.829,95.436,540.582,538.806,0.0
52663.0,STARLINK-4037,PAYLOAD,2023-10-10 14:43:38,15.08836528,7.35e-05,53.2162,149.425,87.4778,272.6298,0.00018886,2.719e-05,0.0,0 STARLINK-4037,1 52663U 22053H   23283.61364197  .00002719  00000-0  18886-3 0  9992,2 52663  53.2162 149.4250 0000735  87.4778 272.6298 15.08836528 78034,6917.891,95.438,540.264,539.248,0.0
52663.0,STARLINK-4037,PAYLOAD,2023-10-10 21:05:10,15.0884495,0.0001269,53.2162,148.2358,112.2399,247.8728,0.00026051,3.861e-05,0.0,0 STARLINK-4037,1 52663U 22053H   23283.87859720  .00003861  00000-0  26051-3 0  9993,2 52663  53.2162 148.2358 0001269 112.2399 247.8728 15.08844950 78073,6917.865,95.437,540.608,538.852,0.0
52663.0,STARLINK-4037,PAYLOAD,2023-10-11 00:15:55,15.0888793,0.0001048,53.2163,147.6401,94.0817,266.0295,0.00083999,0.00013123,0.0,0 STARLINK-4037,1 52663U 22053H   23284.01105418  .00013123  00000-0  83999-3 0  9994,2 52663  53.2163 147.6401 0001048  94.0817 266.0295 15.08887930 78092,6917.734,95.435,540.324,538.874,0.0
52663.0,STARLINK-4037,PAYLOAD,2023-10-11 08:12:52,15.08853424,0.0002192,53.2165,146.1545,78.3793,281.7445,0.00027527,4.097e-05,0.0,0 STARLINK-4037,1 52663U 22053H   23284.34227313  .00004097  00000-0  27527-3 0  9994,2 52663  53.2165 146.1545 0002192  78.3793 281.7445 15.08853424 78144,6917.839,95.437,541.221,538.188,0.0
